start=new Date('2023-01-20T00:00:00.000Z').valueOf();
sats=[{"SITE":"AFETR","PERIAPSIS":"541.668","LAUNCH_DATE":"2019-11-11","MEAN_ELEMENT_THEORY":"SGP4","OBJECT_ID":"2019-074AZ","TLE_LINE2":"2 44760  53.0529 328.7267 0002935 100.3391 259.7929 15.07547111175556","FILE":"3754973","CENTER_NAME":"EARTH","DECAY_DATE":null,"RA_OF_ASC_NODE":"328.7267","ELEMENT_SET_NO":"999","SEMIMAJOR_AXIS":"6921.835","EPOCH":"2023-01-19T05:31:19.450272","MEAN_ANOMALY":"259.7929","CLASSIFICATION_TYPE":"U","COUNTRY_CODE":"US","EPHEMERIS_TYPE":"0","RCS_SIZE":"LARGE","MEAN_MOTION_DDOT":"0.0000000000000","BSTAR":"0.00243730000000","OBJECT_NAME":"STARLINK-1055","MEAN_MOTION":"15.07547111","ECCENTRICITY":"0.00029350","INCLINATION":"53.0529","REF_FRAME":"TEME","OBJECT_TYPE":"PAYLOAD","PERIOD":"95.519","NORAD_CAT_ID":"44760","TLE_LINE1":"1 44760U 19074AZ  23019.23008623  .00037366  00000-0  24373-2 0  9997","GP_ID":"223493475","ARG_OF_PERICENTER":"100.3391","TIME_SYSTEM":"UTC","REV_AT_EPOCH":"17555","APOAPSIS":"545.732","MEAN_MOTION_DOT":"0.00037366"},{"MEAN_MOTION":"15.06408078","REF_FRAME":"TEME","INCLINATION":"53.0520","ECCENTRICITY":"0.00017200","PERIOD":"95.592","OBJECT_TYPE":"PAYLOAD","GP_ID":"223504234","TLE_LINE1":"1 44761U 19074BA  23019.57945303  .00014240  00000-0  97271-3 0  9994","NORAD_CAT_ID":"44761","TIME_SYSTEM":"UTC","ARG_OF_PERICENTER":"81.5224","MEAN_MOTION_DOT":"0.00014240","REV_AT_EPOCH":"17577","APOAPSIS":"548.380","LAUNCH_DATE":"2019-11-11","PERIAPSIS":"545.998","SITE":"AFETR","CENTER_NAME":"EARTH","FILE":"3755109","TLE_LINE2":"2 44761  53.0520 327.2311 0001720  81.5224 278.5960 15.06408078175773","OBJECT_ID":"2019-074BA","MEAN_ELEMENT_THEORY":"SGP4","SEMIMAJOR_AXIS":"6925.324","ELEMENT_SET_NO":"999","DECAY_DATE":null,"RA_OF_ASC_NODE":"327.2311","MEAN_ANOMALY":"278.5960","EPOCH":"2023-01-19T13:54:24.741792","COUNTRY_CODE":"US","CLASSIFICATION_TYPE":"U","OBJECT_NAME":"STARLINK-1056","MEAN_MOTION_DDOT":"0.0000000000000","BSTAR":"0.00097271000000","RCS_SIZE":"LARGE","EPHEMERIS_TYPE":"0"},{"ARG_OF_PERICENTER":"93.8949","TIME_SYSTEM":"UTC","APOAPSIS":"547.747","REV_AT_EPOCH":"17603","MEAN_MOTION_DOT":"0.00009747","OBJECT_TYPE":"PAYLOAD","PERIOD":"95.591","TLE_LINE1":"1 44762U 19074BB  23019.51494259  .00009747  00000-0  67204-3 0  9997","NORAD_CAT_ID":"44762","GP_ID":"223503735","MEAN_MOTION":"15.06416983","INCLINATION":"53.0534","ECCENTRICITY":"0.00008450","REF_FRAME":"TEME","CLASSIFICATION_TYPE":"U","COUNTRY_CODE":"US","RCS_SIZE":"LARGE","EPHEMERIS_TYPE":"0","OBJECT_NAME":"STARLINK-1057","MEAN_MOTION_DDOT":"0.0000000000000","BSTAR":"0.00067204000000","RA_OF_ASC_NODE":"307.5124","DECAY_DATE":null,"SEMIMAJOR_AXIS":"6925.297","ELEMENT_SET_NO":"999","EPOCH":"2023-01-19T12:21:31.039776","MEAN_ANOMALY":"266.2136","FILE":"3755109","TLE_LINE2":"2 44762  53.0534 307.5124 0000845  93.8949 266.2136 15.06416983176032","OBJECT_ID":"2019-074BB","MEAN_ELEMENT_THEORY":"SGP4","CENTER_NAME":"EARTH","SITE":"AFETR","LAUNCH_DATE":"2019-11-11","PERIAPSIS":"546.576"},{"MEAN_MOTION":"15.06449134","INCLINATION":"53.0545","ECCENTRICITY":"0.00013630","REF_FRAME":"TEME","OBJECT_TYPE":"PAYLOAD","PERIOD":"95.589","TLE_LINE1":"1 44763U 19074BC  23019.26887559  .00021768  00000-0  14738-2 0  9999","NORAD_CAT_ID":"44763","GP_ID":"223495221","ARG_OF_PERICENTER":"98.5905","TIME_SYSTEM":"UTC","REV_AT_EPOCH":"17555","APOAPSIS":"548.007","MEAN_MOTION_DOT":"0.00021768","SITE":"AFETR","LAUNCH_DATE":"2019-11-11","PERIAPSIS":"546.119","FILE":"3754973","TLE_LINE2":"2 44763  53.0545 328.6037 0001363  98.5905 261.5238 15.06449134175553","MEAN_ELEMENT_THEORY":"SGP4","OBJECT_ID":"2019-074BC","CENTER_NAME":"EARTH","RA_OF_ASC_NODE":"328.6037","DECAY_DATE":null,"ELEMENT_SET_NO":"999","SEMIMAJOR_AXIS":"6925.198","MEAN_ANOMALY":"261.5238","EPOCH":"2023-01-19T06:27:10.850976","CLASSIFICATION_TYPE":"U","COUNTRY_CODE":"US","RCS_SIZE":"LARGE","EPHEMERIS_TYPE":"0","OBJECT_NAME":"STARLINK-1058","BSTAR":"0.00147380000000","MEAN_MOTION_DDOT":"0.0000000000000"},{"GP_ID":"223503739","TLE_LINE1":"1 44764U 19074BD  23019.20962618  .00046194  00000-0  25212-2 0  9993","NORAD_CAT_ID":"44764","PERIOD":"95.118","OBJECT_TYPE":"PAYLOAD","REF_FRAME":"TEME","INCLINATION":"53.0578","ECCENTRICITY":"0.00019050","MEAN_MOTION":"15.13915258","MEAN_MOTION_DOT":"0.00046194","REV_AT_EPOCH":"17605","APOAPSIS":"525.591","TIME_SYSTEM":"UTC","ARG_OF_PERICENTER":"53.8905","CENTER_NAME":"EARTH","FILE":"3755109","TLE_LINE2":"2 44764  53.0578 304.3747 0001905  53.8905 306.2263 15.13915258176059","MEAN_ELEMENT_THEORY":"SGP4","OBJECT_ID":"2019-074BD","LAUNCH_DATE":"2019-11-11","PERIAPSIS":"522.961","SITE":"AFETR","OBJECT_NAME":"STARLINK-1059","MEAN_MOTION_DDOT":"0.0000000000000","BSTAR":"0.00252120000000","RCS_SIZE":"LARGE","EPHEMERIS_TYPE":"0","COUNTRY_CODE":"US","CLASSIFICATION_TYPE":"U","EPOCH":"2023-01-19T05:01:51.701952","MEAN_ANOMALY":"306.2263","SEMIMAJOR_AXIS":"6902.411","ELEMENT_SET_NO":"999","RA_OF_ASC_NODE":"304.3747","DECAY_DATE":null},{"MEAN_MOTION":"15.06434306","REF_FRAME":"TEME","INCLINATION":"53.0532","ECCENTRICITY":"0.00014060","PERIOD":"95.590","OBJECT_TYPE":"PAYLOAD","GP_ID":"223494224","TLE_LINE1":"1 44765U 19074BE  23019.19795290  .00036421  00000-0  24491-2 0  9992","NORAD_CAT_ID":"44765","TIME_SYSTEM":"UTC","ARG_OF_PERICENTER":"75.3624","MEAN_MOTION_DOT":"0.00036421","REV_AT_EPOCH":"17581","APOAPSIS":"548.082","LAUNCH_DATE":"2019-11-11","PERIAPSIS":"546.135","SITE":"AFETR","CENTER_NAME":"EARTH","TLE_LINE2":"2 44765  53.0532 308.9355 0001406  75.3624 284.7521 15.06434306175810","FILE":"3754973","OBJECT_ID":"2019-074BE","MEAN_ELEMENT_THEORY":"SGP4","ELEMENT_SET_NO":"999","SEMIMAJOR_AXIS":"6925.243","DECAY_DATE":null,"RA_OF_ASC_NODE":"308.9355","EPOCH":"2023-01-19T04:45:03.130560","MEAN_ANOMALY":"284.7521","COUNTRY_CODE":"US","CLASSIFICATION_TYPE":"U","OBJECT_NAME":"STARLINK-1060","BSTAR":"0.00244910000000","MEAN_MOTION_DDOT":"0.0000000000000","RCS_SIZE":"LARGE","EPHEMERIS_TYPE":"0"},{"BSTAR":"0.00099911000000","MEAN_MOTION_DDOT":"0.0000000000000","OBJECT_NAME":"STARLINK-1061","EPHEMERIS_TYPE":"0","RCS_SIZE":"LARGE","COUNTRY_CODE":"US","CLASSIFICATION_TYPE":"U","EPOCH":"2023-01-19T06:17:55.864896","MEAN_ANOMALY":"253.1963","ELEMENT_SET_NO":"999","SEMIMAJOR_AXIS":"6925.228","DECAY_DATE":null,"RA_OF_ASC_NODE":"328.6397","CENTER_NAME":"EARTH","MEAN_ELEMENT_THEORY":"SGP4","OBJECT_ID":"2019-074BF","FILE":"3755109","TLE_LINE2":"2 44766  53.0540 328.6397 0001452 106.9185 253.1963 15.06439440175723","PERIAPSIS":"546.087","LAUNCH_DATE":"2019-11-11","SITE":"AFETR","MEAN_MOTION_DOT":"0.00014647","REV_AT_EPOCH":"17572","APOAPSIS":"548.098","TIME_SYSTEM":"UTC","ARG_OF_PERICENTER":"106.9185","GP_ID":"223503733","NORAD_CAT_ID":"44766","TLE_LINE1":"1 44766U 19074BF  23019.26245214  .00014647  00000-0  99911-3 0  9993","PERIOD":"95.590","OBJECT_TYPE":"PAYLOAD","REF_FRAME":"TEME","ECCENTRICITY":"0.00014520","INCLINATION":"53.0540","MEAN_MOTION":"15.06439440"},{"CENTER_NAME":"EARTH","OBJECT_ID":"2019-074BG","MEAN_ELEMENT_THEORY":"SGP4","FILE":"3755125","TLE_LINE2":"2 44767  53.0540 326.8908 0000996  82.1626 277.9476 15.06400802175788","PERIAPSIS":"546.521","LAUNCH_DATE":"2019-11-11","SITE":"AFETR","COUNTRY_CODE":"US","CLASSIFICATION_TYPE":"U","BSTAR":"0.00011866000000","MEAN_MOTION_DDOT":"0.0000000000000","OBJECT_NAME":"STARLINK-1062","EPHEMERIS_TYPE":"0","RCS_SIZE":"LARGE","SEMIMAJOR_AXIS":"6925.346","ELEMENT_SET_NO":"999","DECAY_DATE":null,"RA_OF_ASC_NODE":"326.8908","MEAN_ANOMALY":"277.9476","EPOCH":"2023-01-19T15:39:12.423168","PERIOD":"95.592","OBJECT_TYPE":"PAYLOAD","GP_ID":"223504247","NORAD_CAT_ID":"44767","TLE_LINE1":"1 44767U 19074BG  23019.65222712  .00001487  00000-0  11866-3 0  9996","MEAN_MOTION":"15.06400802","REF_FRAME":"TEME","ECCENTRICITY":"0.00009960","INCLINATION":"53.0540","TIME_SYSTEM":"UTC","ARG_OF_PERICENTER":"82.1626","MEAN_MOTION_DOT":"0.00001487","REV_AT_EPOCH":"17578","APOAPSIS":"547.901"},{"TIME_SYSTEM":"UTC","ARG_OF_PERICENTER":"91.9529","MEAN_MOTION_DOT":"0.00023944","REV_AT_EPOCH":"17580","APOAPSIS":"548.364","PERIOD":"95.593","OBJECT_TYPE":"PAYLOAD","GP_ID":"223504246","TLE_LINE1":"1 44768U 19074BH  23019.80798142  .00023944  00000-0  16213-2 0  9991","NORAD_CAT_ID":"44768","MEAN_MOTION":"15.06390589","REF_FRAME":"TEME","INCLINATION":"53.0552","ECCENTRICITY":"0.00016190","COUNTRY_CODE":"US","CLASSIFICATION_TYPE":"U","OBJECT_NAME":"STARLINK-1063","BSTAR":"0.00162130000000","MEAN_MOTION_DDOT":"0.0000000000000","RCS_SIZE":"LARGE","EPHEMERIS_TYPE":"0","ELEMENT_SET_NO":"999","SEMIMAJOR_AXIS":"6925.377","RA_OF_ASC_NODE":"326.1923","DECAY_DATE":null,"EPOCH":"2023-01-19T19:23:29.594688","MEAN_ANOMALY":"268.1645","CENTER_NAME":"EARTH","TLE_LINE2":"2 44768  53.0552 326.1923 0001619  91.9529 268.1645 15.06390589175808","FILE":"3755125","MEAN_ELEMENT_THEORY":"SGP4","OBJECT_ID":"2019-074BH","LAUNCH_DATE":"2019-11-11","PERIAPSIS":"546.121","SITE":"AFETR"},{"MEAN_MOTION_DOT":"0.00116797","REV_AT_EPOCH":"17626","APOAPSIS":"470.915","TIME_SYSTEM":"UTC","ARG_OF_PERICENTER":"134.2823","REF_FRAME":"TEME","ECCENTRICITY":"0.00040030","INCLINATION":"53.0028","MEAN_MOTION":"15.32561886","GP_ID":"223503745","NORAD_CAT_ID":"44770","TLE_LINE1":"1 44770U 19074BK  23019.46093942  .00116797  00000-0  36173-2 0  9998","PERIOD":"93.960","OBJECT_TYPE":"PAYLOAD","MEAN_ANOMALY":"225.8506","EPOCH":"2023-01-19T11:03:45.165888","ELEMENT_SET_NO":"999","SEMIMAJOR_AXIS":"6846.309","DECAY_DATE":null,"RA_OF_ASC_NODE":"287.9396","MEAN_MOTION_DDOT":"0.0000000000000","BSTAR":"0.00361730000000","OBJECT_NAME":"STARLINK-1065","EPHEMERIS_TYPE":"0","RCS_SIZE":"LARGE","COUNTRY_CODE":"US","CLASSIFICATION_TYPE":"U","PERIAPSIS":"465.433","LAUNCH_DATE":"2019-11-11","SITE":"AFETR","CENTER_NAME":"EARTH","OBJECT_ID":"2019-074BK","MEAN_ELEMENT_THEORY":"SGP4","FILE":"3755125","TLE_LINE2":"2 44770  53.0028 287.9396 0004003 134.2823 225.8506 15.32561886176261"}];
